CCSDS_OMM_VERS = 2.0
CREATION_DATE  = 
ORIGINATOR     = 

OBJECT_NAME    = COSMOS 2151
OBJECT_ID      = 1991-042A
CENTER_NAME    = EARTH
REF_FRAME      = TEME
TIME_SYSTEM    = UTC
MEAN_ELEMENT_THEORY = SGP/SGP4

EPOCH          = 2025-11-23T01:44:56.849280
MEAN_MOTION    = 14.99584659
ECCENTRICITY   = .0013992
INCLINATION    = 82.4975
RA_OF_ASC_NODE = 186.4530
ARG_OF_PERICENTER = 62.0796
MEAN_ANOMALY   = 298.1843

EPHEMERIS_TYPE = 0
CLASSIFICATION_TYPE = U
NORAD_CAT_ID   = 21422
ELEMENT_SET_NO = 999
REV_AT_EPOCH   = 84721
BSTAR          = .13617E-3
MEAN_MOTION_DOT = .1704E-4
MEAN_MOTION_DDOT = 0

CCSDS_OMM_VERS = 2.0
CREATION_DATE  = 
ORIGINATOR     = 

OBJECT_NAME    = SL-14 R/B
OBJECT_ID      = 1991-042B
CENTER_NAME    = EARTH
REF_FRAME      = TEME
TIME_SYSTEM    = UTC
MEAN_ELEMENT_THEORY = SGP/SGP4

EPOCH          = 2025-11-23T01:30:48.333888
MEAN_MOTION    = 14.81712255
ECCENTRICITY   = .001581
INCLINATION    = 82.4913
RA_OF_ASC_NODE = 320.1773
ARG_OF_PERICENTER = 228.0261
MEAN_ANOMALY   = 131.9607

EPHEMERIS_TYPE = 0
CLASSIFICATION_TYPE = U
NORAD_CAT_ID   = 21423
ELEMENT_SET_NO = 999
REV_AT_EPOCH   = 83728
BSTAR          = .55945E-4
MEAN_MOTION_DOT = .465E-5
MEAN_MOTION_DDOT = 0

CCSDS_OMM_VERS = 2.0
CREATION_DATE  = 
ORIGINATOR     = 

OBJECT_NAME    = ERS-1
OBJECT_ID      = 1991-050A
CENTER_NAME    = EARTH
REF_FRAME      = TEME
TIME_SYSTEM    = UTC
MEAN_ELEMENT_THEORY = SGP/SGP4

EPOCH          = 2025-11-23T01:32:10.040640
MEAN_MOTION    = 14.39342880
ECCENTRICITY   = .003246
INCLINATION    = 98.7915
RA_OF_ASC_NODE = 337.6260
ARG_OF_PERICENTER = 156.9115
MEAN_ANOMALY   = 203.3538

EPHEMERIS_TYPE = 0
CLASSIFICATION_TYPE = U
NORAD_CAT_ID   = 21574
ELEMENT_SET_NO = 999
REV_AT_EPOCH   = 80039
BSTAR          = .12011E-3
MEAN_MOTION_DOT = .329E-5
MEAN_MOTION_DDOT = 0

CCSDS_OMM_VERS = 2.0
CREATION_DATE  = 
ORIGINATOR     = 

OBJECT_NAME    = ARIANE 40 R/B
OBJECT_ID      = 1991-050F
CENTER_NAME    = EARTH
REF_FRAME      = TEME
TIME_SYSTEM    = UTC
MEAN_ELEMENT_THEORY = SGP/SGP4

EPOCH          = 2025-11-23T02:11:07.731744
MEAN_MOTION    = 14.42789309
ECCENTRICITY   = .0003927
INCLINATION    = 98.2191
RA_OF_ASC_NODE = 18.2283
ARG_OF_PERICENTER = 53.5083
MEAN_ANOMALY   = 306.6468

EPHEMERIS_TYPE = 0
CLASSIFICATION_TYPE = U
NORAD_CAT_ID   = 21610
ELEMENT_SET_NO = 999
REV_AT_EPOCH   = 80362
BSTAR          = .12431E-3
MEAN_MOTION_DOT = .373E-5
MEAN_MOTION_DDOT = 0

CCSDS_OMM_VERS = 2.0
CREATION_DATE  = 
ORIGINATOR     = 

OBJECT_NAME    = INTERCOSMOS 25
OBJECT_ID      = 1991-086A
CENTER_NAME    = EARTH
REF_FRAME      = TEME
TIME_SYSTEM    = UTC
MEAN_ELEMENT_THEORY = SGP/SGP4

EPOCH          = 2025-11-23T01:38:15.739008
MEAN_MOTION    = 12.11635959
ECCENTRICITY   = .1487572
INCLINATION    = 82.6073
RA_OF_ASC_NODE = 14.4698
ARG_OF_PERICENTER = 346.8109
MEAN_ANOMALY   = 9.7717

EPHEMERIS_TYPE = 0
CLASSIFICATION_TYPE = U
NORAD_CAT_ID   = 21819
ELEMENT_SET_NO = 999
REV_AT_EPOCH   = 48377
BSTAR          = .19473E-3
MEAN_MOTION_DOT = .995E-5
MEAN_MOTION_DDOT = 0

CCSDS_OMM_VERS = 2.0
CREATION_DATE  = 
ORIGINATOR     = 

OBJECT_NAME    = SL-8 R/B
OBJECT_ID      = 1992-008B
CENTER_NAME    = EARTH
REF_FRAME      = TEME
TIME_SYSTEM    = UTC
MEAN_ELEMENT_THEORY = SGP/SGP4

EPOCH          = 2025-11-23T02:49:44.214240
MEAN_MOTION    = 13.75952747
ECCENTRICITY   = .0036057
INCLINATION    = 82.9269
RA_OF_ASC_NODE = 347.0429
ARG_OF_PERICENTER = 73.2039
MEAN_ANOMALY   = 346.0100

EPHEMERIS_TYPE = 0
CLASSIFICATION_TYPE = U
NORAD_CAT_ID   = 21876
ELEMENT_SET_NO = 999
REV_AT_EPOCH   = 69476
BSTAR          = .11101E-3
MEAN_MOTION_DOT = .124E-5
MEAN_MOTION_DDOT = 0

CCSDS_OMM_VERS = 2.0
CREATION_DATE  = 
ORIGINATOR     = 

OBJECT_NAME    = SL-8 R/B
OBJECT_ID      = 1992-020B
CENTER_NAME    = EARTH
REF_FRAME      = TEME
TIME_SYSTEM    = UTC
MEAN_ELEMENT_THEORY = SGP/SGP4

EPOCH          = 2025-11-23T03:19:14.264256
MEAN_MOTION    = 13.75523342
ECCENTRICITY   = .0027779
INCLINATION    = 82.9316
RA_OF_ASC_NODE = 232.8712
ARG_OF_PERICENTER = 234.0970
MEAN_ANOMALY   = 236.7716

EPHEMERIS_TYPE = 0
CLASSIFICATION_TYPE = U
NORAD_CAT_ID   = 21938
ELEMENT_SET_NO = 999
REV_AT_EPOCH   = 68648
BSTAR          = .7265E-4
MEAN_MOTION_DOT = .85E-6
MEAN_MOTION_DDOT = 0

CCSDS_OMM_VERS = 2.0
CREATION_DATE  = 
ORIGINATOR     = 

OBJECT_NAME    = USA 81
OBJECT_ID      = 1992-023A
CENTER_NAME    = EARTH
REF_FRAME      = TEME
TIME_SYSTEM    = UTC
MEAN_ELEMENT_THEORY = SGP/SGP4

EPOCH          = 2025-11-23T02:58:28.456608
MEAN_MOTION    = 14.32316896
ECCENTRICITY   = .0002329
INCLINATION    = 85.0098
RA_OF_ASC_NODE = 192.8875
ARG_OF_PERICENTER = 67.9913
MEAN_ANOMALY   = 292.1527

EPHEMERIS_TYPE = 0
CLASSIFICATION_TYPE = U
NORAD_CAT_ID   = 21949
ELEMENT_SET_NO = 999
REV_AT_EPOCH   = 7953
BSTAR          = .67511E-4
MEAN_MOTION_DOT = .202E-5
MEAN_MOTION_DDOT = 0

CCSDS_OMM_VERS = 2.0
CREATION_DATE  = 
ORIGINATOR     = 

OBJECT_NAME    = COSMOS 2219
OBJECT_ID      = 1992-076A
CENTER_NAME    = EARTH
REF_FRAME      = TEME
TIME_SYSTEM    = UTC
MEAN_ELEMENT_THEORY = SGP/SGP4

EPOCH          = 2025-11-23T01:25:05.827008
MEAN_MOTION    = 14.14067058
ECCENTRICITY   = .0018353
INCLINATION    = 71.0608
RA_OF_ASC_NODE = 240.9707
ARG_OF_PERICENTER = 354.6650
MEAN_ANOMALY   = 5.4274

EPHEMERIS_TYPE = 0
CLASSIFICATION_TYPE = U
NORAD_CAT_ID   = 22219
ELEMENT_SET_NO = 999
REV_AT_EPOCH   = 70330
BSTAR          = -.56645E-4
MEAN_MOTION_DOT = -.155E-5
MEAN_MOTION_DDOT = 0

CCSDS_OMM_VERS = 2.0
CREATION_DATE  = 
ORIGINATOR     = 

OBJECT_NAME    = SL-16 R/B
OBJECT_ID      = 1992-076B
CENTER_NAME    = EARTH
REF_FRAME      = TEME
TIME_SYSTEM    = UTC
MEAN_ELEMENT_THEORY = SGP/SGP4

EPOCH          = 2025-11-22T16:12:23.760000
MEAN_MOTION    = 14.16835852
ECCENTRICITY   = .0015138
INCLINATION    = 71.0011
RA_OF_ASC_NODE = 53.7958
ARG_OF_PERICENTER = 260.0935
MEAN_ANOMALY   = 205.3572

EPHEMERIS_TYPE = 0
CLASSIFICATION_TYPE = U
NORAD_CAT_ID   = 22220
ELEMENT_SET_NO = 999
REV_AT_EPOCH   = 70667
BSTAR          = .77851E-4
MEAN_MOTION_DOT = .108E-5
MEAN_MOTION_DDOT = 0

CCSDS_OMM_VERS = 2.0
CREATION_DATE  = 
ORIGINATOR     = 

OBJECT_NAME    = COSMOS 2221
OBJECT_ID      = 1992-080A
CENTER_NAME    = EARTH
REF_FRAME      = TEME
TIME_SYSTEM    = UTC
MEAN_ELEMENT_THEORY = SGP/SGP4

EPOCH          = 2025-11-22T14:44:13.425792
MEAN_MOTION    = 14.95650737
ECCENTRICITY   = .0014461
INCLINATION    = 82.5059
RA_OF_ASC_NODE = 21.5862
ARG_OF_PERICENTER = 186.3149
MEAN_ANOMALY   = 173.7893

EPHEMERIS_TYPE = 0
CLASSIFICATION_TYPE = U
NORAD_CAT_ID   = 22236
ELEMENT_SET_NO = 999
REV_AT_EPOCH   = 76478
BSTAR          = .16643E-3
MEAN_MOTION_DOT = .1879E-4
MEAN_MOTION_DDOT = 0

CCSDS_OMM_VERS = 2.0
CREATION_DATE  = 
ORIGINATOR     = 

OBJECT_NAME    = SL-16 R/B
OBJECT_ID      = 1992-093B
CENTER_NAME    = EARTH
REF_FRAME      = TEME
TIME_SYSTEM    = UTC
MEAN_ELEMENT_THEORY = SGP/SGP4

EPOCH          = 2025-11-23T02:20:23.606880
MEAN_MOTION    = 14.15428005
ECCENTRICITY   = .0002114
INCLINATION    = 71.0218
RA_OF_ASC_NODE = 228.0267
ARG_OF_PERICENTER = 130.8370
MEAN_ANOMALY   = 229.2936

EPHEMERIS_TYPE = 0
CLASSIFICATION_TYPE = U
NORAD_CAT_ID   = 22285
ELEMENT_SET_NO = 999
REV_AT_EPOCH   = 69807
BSTAR          = -.34191E-4
MEAN_MOTION_DOT = -.114E-5
MEAN_MOTION_DDOT = 0

