COSMOS 2151             
1 21422U 91042A   25327.07288020  .00001704  00000+0  13617-3 0  9995
2 21422  82.4975 186.4530 0013992  62.0796 298.1843 14.99584659847216
SL-14 R/B               
1 21423U 91042B   25327.06305942  .00000465  00000+0  55945-4 0  9992
2 21423  82.4913 320.1773 0015810 228.0261 131.9607 14.81712255837281
ERS-1                   
1 21574U 91050A   25327.06400510  .00000329  00000+0  12011-3 0  9990
2 21574  98.7915 337.6260 0032460 156.9115 203.3538 14.39342880800396
ARIANE 40 R/B           
1 21610U 91050F   25327.09106171  .00000373  00000+0  12431-3 0  9995
2 21610  98.2191  18.2283 0003927  53.5083 306.6468 14.42789309803620
INTERCOSMOS 25          
1 21819U 91086A   25327.06823772  .00000995  00000+0  19473-3 0  9998
2 21819  82.6073  14.4698 1487572 346.8109   9.7717 12.11635959483778
SL-8 R/B                
1 21876U 92008B   25327.11787285  .00000124  00000+0  11101-3 0  9994
2 21876  82.9269 347.0429 0036057  73.2039 346.0100 13.75952747694762
SL-8 R/B                
1 21938U 92020B   25327.13835954  .00000085  00000+0  72650-4 0  9999
2 21938  82.9316 232.8712 0027779 234.0970 236.7716 13.75523342686485
USA 81                  
1 21949U 92023A   25327.12394047  .00000202  00000+0  67511-4 0  9997
2 21949  85.0098 192.8875 0002329  67.9913 292.1527 14.32316896 79533
COSMOS 2219             
1 22219U 92076A   25327.05909522 -.00000155  00000+0 -56645-4 0  9993
2 22219  71.0608 240.9707 0018353 354.6650   5.4274 14.14067058703309
SL-16 R/B               
1 22220U 92076B   25326.67527500  .00000108  00000+0  77851-4 0  9992
2 22220  71.0011  53.7958 0015138 260.0935 205.3572 14.16835852706673
COSMOS 2221             
1 22236U 92080A   25326.61404428  .00001879  00000+0  16643-3 0  9998
2 22236  82.5059  21.5862 0014461 186.3149 173.7893 14.95650737764785
SL-16 R/B               
1 22285U 92093B   25327.09749545 -.00000114  00000+0 -34191-4 0  9993
2 22285  71.0218 228.0267 0002114 130.8370 229.2936 14.15428005698070
